SEEDS II (CO-66)        
1 32791U 08021J   26068.92109284  .00023758  00000+0  84213-3 0  9995
2 32791  97.7519  62.3611 0001448 359.2618   0.8619 15.29097235972108
STARLINK-32303          
1 61912U 24207A   26068.95785235  .00041107  00000+0  14941-2 0  9993
2 61912  42.9966 280.1797 0000374 233.7502 126.3315 15.27600470 75350
